{"type": "FeatureCollection", "features": [ {"type": "Feature", "properties": {"norad_id": 30481, "name": "FENGYUN 1C DEB", "group": "fengyun-1c-debris", "lat": 69.13060969237559, "lon": -150.84982107519735, "alt_km": 880.9903264404002, "timestamp": "2025-12-15T07:02:37.893067+00:00", "meta": {"OBJECT_NAME": "FENGYUN 1C DEB", "OBJECT_ID": "1999-025AGT", "EPOCH": "2025-12-14T21:05:27.072384", "MEAN_MOTION": 14.39047706, "ECCENTRICITY": 0.02230265, "INCLINATION": 98.3372, "RA_OF_ASC_NODE": 6.1256, "ARG_OF_PERICENTER": 253.5205, "MEAN_ANOMALY": 230.0152, "EPHEMERIS_TYPE": 0, "CLASSIFICATION_TYPE": "U", "NORAD_CAT_ID": 30481, "ELEMENT_SET_NO": 999, "REV_AT_EPOCH": 98514, "BSTAR": 0.00046684278, "MEAN_MOTION_DOT": 1.876e-05, "MEAN_MOTION_DDOT": 0}, "tle": {"line1": "1 30481U 99025AGT 25348.87878556  .00001876  00000+0  46684-3 0  9999", "line2": "2 30481  98.3372   6.1256 0223026 253.5205 230.0152 14.39047706985148"}}, "geometry": {"type": "Point", "coordinates": [-150.84982107519735, 69.13060969237559]}}, {"type": "Feature", "properties": {"norad_id": 30489, "name": "FENGYUN 1C DEB", "group": "fengyun-1c-debris", "lat": 67.8421761236265, "lon": -154.47917358199237, "alt_km": 916.7090495692655, "timestamp": "2025-12-15T07:02:37.893077+00:00", "meta": {"OBJECT_NAME": "FENGYUN 1C DEB", "OBJECT_ID": "1999-025AHB", "EPOCH": "2025-12-14T23:52:04.399968", "MEAN_MOTION": 14.15823332, "ECCENTRICITY": 0.01389629, "INCLINATION": 98.4685, "RA_OF_ASC_NODE": 3.7771, "ARG_OF_PERICENTER": 258.4853, "MEAN_ANOMALY": 129.7747, "EPHEMERIS_TYPE": 0, "CLASSIFICATION_TYPE": "U", "NORAD_CAT_ID": 30489, "ELEMENT_SET_NO": 999, "REV_AT_EPOCH": 97419, "BSTAR": 0.0002883134, "MEAN_MOTION_DOT": 5.8e-06, "MEAN_MOTION_DDOT": 0}, "tle": {"line1": "1 30489U 99025AHB 25348.99449537  .00000580  00000+0  28831-3 0  9998", "line2": "2 30489  98.4685   3.7771 0138962 258.4853 129.7747 14.15823332974194"}}, "geometry": {"type": "Point", "coordinates": [-154.47917358199237, 67.8421761236265]}}, {"type": "Feature", "properties": {"norad_id": 30490, "name": "FENGYUN 1C DEB", "group": "fengyun-1c-debris", "lat": -47.120887447945556, "lon": -67.82574761875917, "alt_km": 500.8070515823365, "timestamp": "2025-12-15T07:02:37.893087+00:00", "meta": {"OBJECT_NAME": "FENGYUN 1C DEB", "OBJECT_ID": "1999-025AHC", "EPOCH": "2025-12-14T20:37:53.171616", "MEAN_MOTION": 15.28984547, "ECCENTRICITY": 0.00462157, "INCLINATION": 98.3288, "RA_OF_ASC_NODE": 120.7664, "ARG_OF_PERICENTER": 110.0762, "MEAN_ANOMALY": 250.5458, "EPHEMERIS_TYPE": 0, "CLASSIFICATION_TYPE": "U", "NORAD_CAT_ID": 30490, "ELEMENT_SET_NO": 999, "REV_AT_EPOCH": 99528, "BSTAR": 0.0023017533, "MEAN_MOTION_DOT": 0.00067329, "MEAN_MOTION_DDOT": 0}, "tle": {"line1": "1 30490U 99025AHC 25348.85964319  .00067329  00000+0  23018-2 0  9990", "line2": "2 30490  98.3288 120.7664 0046215 110.0762 250.5458 15.28984547995282"}}, "geometry": {"type": "Point", "coordinates": [-67.82574761875917, -47.120887447945556]}}, {"type": "Feature", "properties": {"norad_id": 30492, "name": "FENGYUN 1C DEB", "group": "fengyun-1c-debris", "lat": -16.8880851489018, "lon": -176.08787698941546, "alt_km": 775.9150211003534, "timestamp": "2025-12-15T07:02:37.893097+00:00", "meta": {"OBJECT_NAME": "FENGYUN 1C DEB", "OBJECT_ID": "1999-025AHE", "EPOCH": "2025-12-14T16:54:55.253952", "MEAN_MOTION": 14.51915222, "ECCENTRICITY": 0.00945736, "INCLINATION": 102.3263, "RA_OF_ASC_NODE": 6.8581, "ARG_OF_PERICENTER": 57.8594, "MEAN_ANOMALY": 303.172, "EPHEMERIS_TYPE": 0, "CLASSIFICATION_TYPE": "U", "NORAD_CAT_ID": 30492, "ELEMENT_SET_NO": 999, "REV_AT_EPOCH": 96923, "BSTAR": 0.0025546093, "MEAN_MOTION_DOT": 0.00010853, "MEAN_MOTION_DDOT": 0}, "tle": {"line1": "1 30492U 99025AHE 25348.70480618  .00010853  00000+0  25546-2 0  9999", "line2": "2 30492 102.3263   6.8581 0094573  57.8594 303.1720 14.51915222969238"}}, "geometry": {"type": "Point", "coordinates": [-176.08787698941546, -16.8880851489018]}}, {"type": "Feature", "properties": {"norad_id": 30493, "name": "FENGYUN 1C DEB", "group": "fengyun-1c-debris", "lat": -21.77449506949733, "lon": -177.11052319089495, "alt_km": 1003.899979295079, "timestamp": "2025-12-15T07:02:37.893109+00:00", "meta": {"OBJECT_NAME": "FENGYUN 1C DEB", "OBJECT_ID": "1999-025AHF", "EPOCH": "2025-12-13T12:20:05.297280", "MEAN_MOTION": 13.92976286, "ECCENTRICITY": 0.01812019, "INCLINATION": 98.5708, "RA_OF_ASC_NODE": 177.7868, "ARG_OF_PERICENTER": 214.6596, "MEAN_ANOMALY": 202.7185, "EPHEMERIS_TYPE": 0, "CLASSIFICATION_TYPE": "U", "NORAD_CAT_ID": 30493, "ELEMENT_SET_NO": 999, "REV_AT_EPOCH": 95106, "BSTAR": 0.0045223768, "MEAN_MOTION_DOT": 6.687e-05, "MEAN_MOTION_DDOT": 0}, "tle": {"line1": "1 30493U 99025AHF 25347.51395020  .00006687  00000+0  45224-2 0  9995", "line2": "2 30493  98.5708 177.7868 0181201 214.6596 202.7185 13.92976286951067"}}, "geometry": {"type": "Point", "coordinates": [-177.11052319089495, -21.77449506949733]}}, {"type": "Feature", "properties": {"norad_id": 30494, "name": "FENGYUN 1C DEB", "group": "fengyun-1c-debris", "lat": 51.371776531927146, "lon": -143.56570320745004, "alt_km": 953.5941337854119, "timestamp": "2025-12-15T07:02:37.893120+00:00", "meta": {"OBJECT_NAME": "FENGYUN 1C DEB", "OBJECT_ID": "1999-025AHG", "EPOCH": "2025-12-13T09:08:54.511872", "MEAN_MOTION": 13.79374392, "ECCENTRICITY": 0.01858881, "INCLINATION": 99.283, "RA_OF_ASC_NODE": 22.7493, "ARG_OF_PERICENTER": 220.5118, "MEAN_ANOMALY": 138.2072, "EPHEMERIS_TYPE": 0, "CLASSIFICATION_TYPE": "U", "NORAD_CAT_ID": 30494, "ELEMENT_SET_NO": 999, "REV_AT_EPOCH": 94495, "BSTAR": 0.0021155568, "MEAN_MOTION_DOT": 2.43e-05, "MEAN_MOTION_DDOT": 0}, "tle": {"line1": "1 30494U 99025AHG 25347.38118648  .00002430  00000+0  21156-2 0  9990", "line2": "2 30494  99.2830  22.7493 0185888 220.5118 138.2072 13.79374392944959"}}, "geometry": {"type": "Point", "coordinates": [-143.56570320745004, 51.371776531927146]}}, {"type": "Feature", "properties": {"norad_id": 30495, "name": "FENGYUN 1C DEB", "group": "fengyun-1c-debris", "lat": 64.37843267171685, "lon": 51.41514616788694, "alt_km": 1719.7966898467912, "timestamp": "2025-12-15T07:02:37.893130+00:00", "meta": {"OBJECT_NAME": "FENGYUN 1C DEB", "OBJECT_ID": "1999-025AHH", "EPOCH": "2025-12-14T04:42:05.842080", "MEAN_MOTION": 12.94393656, "ECCENTRICITY": 0.05971501, "INCLINATION": 102.2603, "RA_OF_ASC_NODE": 77.1465, "ARG_OF_PERICENTER": 263.6815, "MEAN_ANOMALY": 89.5981, "EPHEMERIS_TYPE": 0, "CLASSIFICATION_TYPE": "U", "NORAD_CAT_ID": 30495, "ELEMENT_SET_NO": 999, "REV_AT_EPOCH": 88692, "BSTAR": 0.0037984689, "MEAN_MOTION_DOT": 2.324e-05, "MEAN_MOTION_DDOT": 0}, "tle": {"line1": "1 30495U 99025AHH 25348.19590095  .00002324  00000+0  37985-2 0  9990", "line2": "2 30495 102.2603  77.1465 0597150 263.6815  89.5981 12.94393656886926"}}, "geometry": {"type": "Point", "coordinates": [51.41514616788694, 64.37843267171685]}}, {"type": "Feature", "properties": {"norad_id": 30496, "name": "FENGYUN 1C DEB", "group": "fengyun-1c-debris", "lat": -27.10920000149243, "lon": -100.0248556816123, "alt_km": 629.9776987894693, "timestamp": "2025-12-15T07:02:37.893140+00:00", "meta": {"OBJECT_NAME": "FENGYUN 1C DEB", "OBJECT_ID": "1999-025AHJ", "EPOCH": "2025-12-14T16:42:12.624480", "MEAN_MOTION": 14.94294852, "ECCENTRICITY": 0.01305891, "INCLINATION": 98.7832, "RA_OF_ASC_NODE": 254.7674, "ARG_OF_PERICENTER": 91.1258, "MEAN_ANOMALY": 270.4924, "EPHEMERIS_TYPE": 0, "CLASSIFICATION_TYPE": "U", "NORAD_CAT_ID": 30496, "ELEMENT_SET_NO": 999, "REV_AT_EPOCH": 1173, "BSTAR": 0.00053845953, "MEAN_MOTION_DOT": 6.774e-05, "MEAN_MOTION_DDOT": 0}, "tle": {"line1": "1 30496U 99025AHJ 25348.69597945  .00006774  00000+0  53846-3 0  9995", "line2": "2 30496  98.7832 254.7674 0130589  91.1258 270.4924 14.94294852 11736"}}, "geometry": {"type": "Point", "coordinates": [-100.0248556816123, -27.10920000149243]}}, {"type": "Feature", "properties": {"norad_id": 30498, "name": "FENGYUN 1C DEB", "group": "fengyun-1c-debris", "lat": 3.7474435310651852, "lon": 39.85949428980133, "alt_km": 937.0119404417619, "timestamp": "2025-12-15T07:02:37.893150+00:00", "meta": {"OBJECT_NAME": "FENGYUN 1C DEB", "OBJECT_ID": "1999-025AHL", "EPOCH": "2025-12-14T14:40:34.554720", "MEAN_MOTION": 14.06077678, "ECCENTRICITY": 0.01044581, "INCLINATION": 99.238, "RA_OF_ASC_NODE": 39.7748, "ARG_OF_PERICENTER": 150.8451, "MEAN_ANOMALY": 3.5245, "EPHEMERIS_TYPE": 0, "CLASSIFICATION_TYPE": "U", "NORAD_CAT_ID": 30498, "ELEMENT_SET_NO": 999, "REV_AT_EPOCH": 95795, "BSTAR": 0.0019751286, "MEAN_MOTION_DOT": 3.362e-05, "MEAN_MOTION_DDOT": 0}, "tle": {"line1": "1 30498U 99025AHL 25348.61151105  .00003362  00000+0  19751-2 0  9999", "line2": "2 30498  99.2380  39.7748 0104458 150.8451   3.5245 14.06077678957951"}}, "geometry": {"type": "Point", "coordinates": [39.85949428980133, 3.7474435310651852]}}, {"type": "Feature", "properties": {"norad_id": 30500, "name": "FENGYUN 1C DEB", "group": "fengyun-1c-debris", "lat": 38.22088508758106, "lon": 73.642865853418, "alt_km": 788.848572502231, "timestamp": "2025-12-15T07:02:37.893163+00:00", "meta": {"OBJECT_NAME": "FENGYUN 1C DEB", "OBJECT_ID": "1999-025AHN", "EPOCH": "2025-12-14T22:41:22.322400", "MEAN_MOTION": 14.25225057, "ECCENTRICITY": 0.00645183, "INCLINATION": 99.0724, "RA_OF_ASC_NODE": 80.5118, "ARG_OF_PERICENTER": 110.059, "MEAN_ANOMALY": 304.4965, "EPHEMERIS_TYPE": 0, "CLASSIFICATION_TYPE": "U", "NORAD_CAT_ID": 30500, "ELEMENT_SET_NO": 999, "REV_AT_EPOCH": 96713, "BSTAR": 0.0016745922, "MEAN_MOTION_DOT": 3.978e-05, "MEAN_MOTION_DDOT": 0}, "tle": {"line1": "1 30500U 99025AHN 25348.94539725  .00003978  00000+0  16746-2 0  9991", "line2": "2 30500  99.0724  80.5118 0064518 110.0590 304.4965 14.25225057967134"}}, "geometry": {"type": "Point", "coordinates": [73.642865853418, 38.22088508758106]}}]}